CCSDS_OMM_VERS,COMMENT,CREATION_DATE,ORIGINATOR,OBJECT_NAME,OBJECT_ID,CENTER_NAME,REF_FRAME,TIME_SYSTEM,MEAN_ELEMENT_THEORY,EPOCH,MEAN_MOTION,ECCENTRICITY,INCLINATION,RA_OF_ASC_NODE,ARG_OF_PERICENTER,MEAN_ANOMALY,EPHEMERIS_TYPE,CLASSIFICATION_TYPE,NORAD_CAT_ID,ELEMENT_SET_NO,REV_AT_EPOCH,BSTAR,MEAN_MOTION_DOT,MEAN_MOTION_DDOT,SEMIMAJOR_AXIS,PERIOD,APOAPSIS,PERIAPSIS,OBJECT_TYPE,RCS_SIZE,COUNTRY_CODE,LAUNCH_DATE,SITE,DECAY_DATE,FILE,GP_ID,TLE_LINE0,TLE_LINE1,TLE_LINE2
2,GENERATED VIA SPACE-TRACK.ORG API,2012-07-11T16:38:24,18 SPCS,LEASAT 5,1990-002B,EARTH,TEME,UTC,SGP4,2012-07-11T15:05:09.343104,1.00272328,0.000319,10.1074,27.3995,69.6749,131.1572,0,U,20410,999,6767,0.0001,-8.1e-07,0,42164.606,1436.089,35799.922,35773.021,PAYLOAD,LARGE,US,1990-01-09,AFETR,,1316158,89546688,0 LEASAT 5,1 20410U 90002B   12193.62858036 -.00000081  00000-0  10000-3 0  9996,2 20410 010.1074 027.3995 0003190 069.6749 131.1572 01.00272328 67672
2,GENERATED VIA SPACE-TRACK.ORG API,2012-07-14T00:41:59,18 SPCS,LEASAT 5,1990-002B,EARTH,TEME,UTC,SGP4,2012-07-13T22:32:02.626656,1.00272492,0.0003183,10.1105,27.3799,69.8346,245.0172,0,U,20410,999,6769,0.0001,-7.7e-07,0,42164.56,1436.086,35799.846,35773.004,PAYLOAD,LARGE,US,1990-01-09,AFETR,,1317573,89581108,0 LEASAT 5,1 20410U 90002B   12195.93891929 -.00000077  00000-0  10000-3 0  9995,2 20410 010.1105 027.3799 0003183 069.8346 245.0172 01.00272492 67691
2,GENERATED VIA SPACE-TRACK.ORG API,2012-07-15T08:46:36,18 SPCS,LEASAT 5,1990-002B,EARTH,TEME,UTC,SGP4,2012-07-14T20:47:34.732608,1.00272563,0.0003171,10.1118,27.372,70.2458,219.4128,0,U,20410,999,6770,0.0001,-7.7e-07,0,42164.54,1436.085,35799.776,35773.035,PAYLOAD,LARGE,US,1990-01-09,AFETR,,1318132,89602815,0 LEASAT 5,1 20410U 90002B   12196.86637422 -.00000077 +00000-0 +10000-3 0  9994,2 20410 010.1118 027.3720 0003171 070.2458 219.4128 01.00272563067703
2,GENERATED VIA SPACE-TRACK.ORG API,2012-07-15T16:37:50,18 SPCS,LEASAT 5,1990-002B,EARTH,TEME,UTC,SGP4,2012-07-15T20:25:21.414720,1.00272691,0.0003153,10.113,27.3633,71.0145,214.0717,0,U,20410,999,6771,0.0001,-7.6e-07,0,42164.504,1436.083,35799.664,35773.075,PAYLOAD,LARGE,US,1990-01-09,AFETR,,1318267,89609734,0 LEASAT 5,1 20410U 90002B   12197.85094230 -.00000076  00000-0  10000-3 0  9997,2 20410 010.1130 027.3633 0003153 071.0145 214.0717 01.00272691 67710
2,GENERATED VIA SPACE-TRACK.ORG API,2012-07-17T09:01:49,18 SPCS,LEASAT 5,1990-002B,EARTH,TEME,UTC,SGP4,2012-07-16T21:36:29.959200,1.00272727,0.0003102,10.1147,27.3537,73.1839,230.7323,0,U,20410,999,6772,0.0001,-7.5e-07,0,42164.494,1436.083,35799.439,35773.28,PAYLOAD,LARGE,US,1990-01-09,AFETR,,1319388,89633649,0 LEASAT 5,1 20410U 90002B   12198.90034675 -.00000075 +00000-0 +10000-3 0  9990,2 20410 010.1147 027.3537 0003102 073.1839 230.7323 01.00272727067727
2,GENERATED VIA SPACE-TRACK.ORG API,2012-07-17T06:24:48,18 SPCS,LEASAT 5,1990-002B,EARTH,TEME,UTC,SGP4,2012-07-17T02:38:16.605023,1.00272754,0.000309,10.1151,27.3518,72.5909,306.9791,0,U,20410,999,6773,0.0001,-7.5e-07,0,42164.487,1436.083,35799.381,35773.323,PAYLOAD,LARGE,US,1990-01-09,AFETR,,1319239,89627305,0 LEASAT 5,1 20410U 90002B   12199.10991441 -.00000075  00000-0  10000-3 0  9996,2 20410 010.1151 027.3518 0003090 072.5909 306.9791 01.00272754 67734
2,GENERATED VIA SPACE-TRACK.ORG API,2012-07-18T09:32:12,18 SPCS,LEASAT 5,1990-002B,EARTH,TEME,UTC,SGP4,2012-07-17T23:08:52.576224,1.0027283,0.000308,10.1162,27.3446,72.2714,255.8003,0,U,20410,999,6773,0.0001,-7.5e-07,0,42164.465,1436.081,35799.317,35773.344,PAYLOAD,LARGE,US,1990-01-09,AFETR,,1319988,89651105,0 LEASAT 5,1 20410U 90002B   12199.96449741 -.00000075 +00000-0 +10000-3 0  9991,2 20410 010.1162 027.3446 0003080 072.2714 255.8003 01.00272830067739
2,GENERATED VIA SPACE-TRACK.ORG API,2012-07-19T10:21:55,18 SPCS,LEASAT 5,1990-002B,EARTH,TEME,UTC,SGP4,2012-07-18T01:40:18.076224,1.00272838,0.0003079,10.1164,27.3435,72.2,293.8329,0,U,20410,999,6774,0.0001,-7.5e-07,0,42164.463,1436.081,35799.311,35773.346,PAYLOAD,LARGE,US,1990-01-09,AFETR,,1320508,89667302,0 LEASAT 5,1 20410U 90002B   12200.06965366 -.00000075 +00000-0 +10000-3 0  9991,2 20410 010.1164 027.3435 0003079 072.2000 293.8329 01.00272838067747
2,GENERATED VIA SPACE-TRACK.ORG API,2012-07-19T00:27:44,18 SPCS,LEASAT 5,1990-002B,EARTH,TEME,UTC,SGP4,2012-07-19T00:23:41.934048,1.00272983,0.0002992,10.1179,27.335,72.5148,275.3127,0,U,20410,999,6774,0.0001,-7.4e-07,0,42164.423,1436.079,35798.903,35773.672,PAYLOAD,LARGE,US,1990-01-09,AFETR,,1320324,89660780,0 LEASAT 5,1 20410U 90002B   12201.01645757 -.00000074  00000-0  10000-3 0  9995,2 20410 010.1179 027.3350 0002992 072.5148 275.3127 01.00272983 67740
2,GENERATED VIA SPACE-TRACK.ORG API,2012-07-20T10:16:44,18 SPCS,LEASAT 5,1990-002B,EARTH,TEME,UTC,SGP4,2012-07-19T21:49:47.805312,1.00273063,0.0002917,10.1192,27.3265,73.1437,237.0992,0,U,20410,999,6775,0.0001,-7.4e-07,0,42164.4,1436.078,35798.565,35773.966,PAYLOAD,LARGE,US,1990-01-09,AFETR,,1321181,89684116,0 LEASAT 5,1 20410U 90002B   12201.90958108 -.00000074 +00000-0 +10000-3 0  9990,2 20410 010.1192 027.3265 0002917 073.1437 237.0992 01.00273063067751
2,GENERATED VIA SPACE-TRACK.ORG API,2012-07-21T09:25:20,18 SPCS,LEASAT 5,1990-002B,EARTH,TEME,UTC,SGP4,2012-07-20T23:26:17.806271,1.0027313,0.0002917,10.1206,27.3173,73.2095,262.2221,0,U,20410,999,6776,0.0001,-7.4e-07,0,42164.381,1436.077,35798.546,35773.947,PAYLOAD,LARGE,US,1990-01-09,AFETR,,1321725,89699353,0 LEASAT 5,1 20410U 90002B   12202.97659498 -.00000074 +00000-0 +10000-3 0  9998,2 20410 010.1206 027.3173 0002917 073.2095 262.2221 01.00273130067767
2,GENERATED VIA SPACE-TRACK.ORG API,2012-07-21T00:40:51,18 SPCS,LEASAT 5,1990-002B,EARTH,TEME,UTC,SGP4,2012-07-21T01:10:35.459327,1.00273127,0.000292,10.1207,27.3164,73.7087,287.8684,0,U,20410,999,6777,0.0001,-7.4e-07,0,42164.382,1436.077,35798.559,35773.935,PAYLOAD,LARGE,US,1990-01-09,AFETR,,1321529,89691638,0 LEASAT 5,1 20410U 90002B   12203.04902152 -.00000074  00000-0  10000-3 0  9995,2 20410 010.1207 027.3164 0002920 073.7087 287.8684 01.00273127 67771
2,GENERATED VIA SPACE-TRACK.ORG API,2012-07-22T09:08:37,18 SPCS,LEASAT 5,1990-002B,EARTH,TEME,UTC,SGP4,2012-07-21T21:41:41.977247,1.00273192,0.000294,10.1216,27.31,72.6088,237.5971,0,U,20410,999,6777,0.0001,-7.5e-07,0,42164.364,1436.076,35798.625,35773.833,PAYLOAD,LARGE,US,1990-01-09,AFETR,,1322090,89714454,0 LEASAT 5,1 20410U 90002B   12203.90395807 -.00000075 +00000-0 +10000-3 0  9994,2 20410 010.1216 027.3100 0002940 072.6088 237.5971 01.00273192067775
2,GENERATED VIA SPACE-TRACK.ORG API,2012-07-22T00:37:08,18 SPCS,LEASAT 5,1990-002B,EARTH,TEME,UTC,SGP4,2012-07-22T01:28:16.116960,1.00273197,0.0002941,10.1218,27.3084,73.1223,293.8825,0,U,20410,999,6778,0.0001,-7.5e-07,0,42164.363,1436.076,35798.628,35773.827,PAYLOAD,LARGE,US,1990-01-09,AFETR,,1321908,89707129,0 LEASAT 5,1 20410U 90002B   12204.06129765 -.00000075  00000-0  10000-3 0  9990,2 20410 010.1218 027.3084 0002941 073.1223 293.8825 01.00273197 67785
2,GENERATED VIA SPACE-TRACK.ORG API,2012-07-23T08:15:54,18 SPCS,LEASAT 5,1990-002B,EARTH,TEME,UTC,SGP4,2012-07-22T21:12:22.253760,1.00273223,0.00029,10.1229,27.3013,72.5108,231.3383,0,U,20410,999,6778,0.0001,-7.6e-07,0,42164.355,1436.076,35798.448,35773.993,PAYLOAD,LARGE,US,1990-01-09,AFETR,,1322460,89729238,0 LEASAT 5,1 20410U 90002B   12204.88359090 -.00000076 +00000-0 +10000-3 0  9997,2 20410 010.1229 027.3013 0002900 072.5108 231.3383 01.00273223067785
2,GENERATED VIA SPACE-TRACK.ORG API,2012-07-23T08:45:49,18 SPCS,LEASAT 5,1990-002B,EARTH,TEME,UTC,SGP4,2012-07-23T14:16:37.707167,1.00273251,0.000286,10.1239,27.2948,72.4681,128.1539,0,U,20410,999,6779,0.0001,-7.6e-07,0,42164.347,1436.075,35798.271,35774.153,PAYLOAD,LARGE,US,1990-01-09,AFETR,,1322501,89734093,0 LEASAT 5,1 20410U 90002B   12205.59488087 -.00000076  00000-0  10000-3 0  9995,2 20410 010.1239 027.2948 0002860 072.4681 128.1539 01.00273251 67790
2,GENERATED VIA SPACE-TRACK.ORG API,2012-07-25T16:46:08,18 SPCS,LEASAT 5,1990-002B,EARTH,TEME,UTC,SGP4,2012-07-25T14:37:04.113695,1.00273302,0.0002651,10.1258,27.2785,80.9968,126.7356,0,U,20410,999,6781,0.0001,-8e-07,0,42164.333,1436.075,35797.376,35775.02,PAYLOAD,LARGE,US,1990-01-09,AFETR,,1324087,89767459,0 LEASAT 5,1 20410U 90002B   12207.60907539 -.00000080  00000-0  10000-3 0  9992,2 20410 010.1258 027.2785 0002651 080.9968 126.7356 01.00273302 67811
2,GENERATED VIA SPACE-TRACK.ORG API,2012-07-30T10:43:38,18 SPCS,LEASAT 5,1990-002B,EARTH,TEME,UTC,SGP4,2012-07-30T13:44:17.983103,1.00272538,0.0002907,10.132,27.2317,80.5604,118.9071,0,U,20410,999,6786,0.0001,-9.4e-07,0,42164.547,1436.086,35798.67,35774.155,PAYLOAD,LARGE,US,1990-01-09,AFETR,,1326426,89847540,0 LEASAT 5,1 20410U 90002B   12212.57243036 -.00000094  00000-0  10000-3 0  9994,2 20410 010.1320 027.2317 0002907 080.5604 118.9071 01.00272538 67861
2,GENERATED VIA SPACE-TRACK.ORG API,2012-07-31T08:54:12,18 SPCS,LEASAT 5,1990-002B,EARTH,TEME,UTC,SGP4,2012-07-30T21:34:25.393728,1.00272601,0.0002886,10.1327,27.2289,82.0019,235.3217,0,U,20410,999,6786,0.0001,-9.4e-07,0,42164.53,1436.085,35798.563,35774.226,PAYLOAD,LARGE,US,1990-01-09,AFETR,,1326912,89857813,0 LEASAT 5,1 20410U 90002B   12212.89890502 -.00000094 +00000-0 +10000-3 0  9995,2 20410 010.1327 027.2289 0002886 082.0019 235.3217 01.00272601067866
2,GENERATED VIA SPACE-TRACK.ORG API,2012-07-31T16:45:01,18 SPCS,LEASAT 5,1990-002B,EARTH,TEME,UTC,SGP4,2012-07-31T20:16:40.408895,1.00272683,0.0002878,10.1341,27.2209,83.9362,214.8913,0,U,20410,999,6787,0.0001,-9.5e-07,0,42164.507,1436.084,35798.507,35774.237,PAYLOAD,LARGE,US,1990-01-09,AFETR,,1327345,89864630,0 LEASAT 5,1 20410U 90002B   12213.84491214 -.00000095  00000-0  10000-3 0  9999,2 20410 010.1341 027.2209 0002878 083.9362 214.8913 01.00272683 67872
